{"fetched_at":"2026-07-23T07:05:51.545Z","source":"https://celestrak.org/NORAD/elements/gp.php?NAME=LEGION&FORMAT=JSON","constellation":"maxar-legion","records":[{"OBJECT_NAME":"LEGION 1","OBJECT_ID":"2024-081A","EPOCH":"2026-07-22T20:25:55.142688","CLASSIFICATION_TYPE":"U","MEAN_MOTION":15.16879713,"ECCENTRICITY":0.00079574,"INCLINATION":97.5002,"RA_OF_ASC_NODE":281.3303,"ARG_OF_PERICENTER":237.6866,"MEAN_ANOMALY":122.3597,"EPHEMERIS_TYPE":0,"NORAD_CAT_ID":59625,"ELEMENT_SET_NO":999,"REV_AT_EPOCH":12294,"BSTAR":0.00018320275,"MEAN_MOTION_DOT":0.00003542,"MEAN_MOTION_DDOT":0},{"OBJECT_NAME":"LEGION 2","OBJECT_ID":"2024-081B","EPOCH":"2026-07-22T21:09:49.937472","CLASSIFICATION_TYPE":"U","MEAN_MOTION":15.16860892,"ECCENTRICITY":0.00108528,"INCLINATION":97.5003,"RA_OF_ASC_NODE":281.4571,"ARG_OF_PERICENTER":204.3443,"MEAN_ANOMALY":155.7279,"EPHEMERIS_TYPE":0,"NORAD_CAT_ID":59626,"ELEMENT_SET_NO":999,"REV_AT_EPOCH":12295,"BSTAR":0.00020015835,"MEAN_MOTION_DOT":0.00003877,"MEAN_MOTION_DDOT":0},{"OBJECT_NAME":"LEGION 3","OBJECT_ID":"2024-146A","EPOCH":"2026-07-22T20:24:14.758848","CLASSIFICATION_TYPE":"U","MEAN_MOTION":15.15686793,"ECCENTRICITY":0.00073738,"INCLINATION":45,"RA_OF_ASC_NODE":199.3558,"ARG_OF_PERICENTER":16.7191,"MEAN_ANOMALY":343.393,"EPHEMERIS_TYPE":0,"NORAD_CAT_ID":60452,"ELEMENT_SET_NO":999,"REV_AT_EPOCH":10743,"BSTAR":0.00018258942,"MEAN_MOTION_DOT":0.00003274,"MEAN_MOTION_DDOT":0},{"OBJECT_NAME":"LEGION 4","OBJECT_ID":"2024-146B","EPOCH":"2026-07-22T17:13:49.582272","CLASSIFICATION_TYPE":"U","MEAN_MOTION":15.15720677,"ECCENTRICITY":0.0009541,"INCLINATION":45.0019,"RA_OF_ASC_NODE":291.932,"ARG_OF_PERICENTER":159.8062,"MEAN_ANOMALY":200.3196,"EPHEMERIS_TYPE":0,"NORAD_CAT_ID":60453,"ELEMENT_SET_NO":999,"REV_AT_EPOCH":10626,"BSTAR":0.00022104773,"MEAN_MOTION_DOT":0.00004025,"MEAN_MOTION_DDOT":0},{"OBJECT_NAME":"LEGION 5","OBJECT_ID":"2025-025A","EPOCH":"2026-07-22T18:48:41.636736","CLASSIFICATION_TYPE":"U","MEAN_MOTION":15.15738014,"ECCENTRICITY":0.00075849,"INCLINATION":45.0013,"RA_OF_ASC_NODE":110.5358,"ARG_OF_PERICENTER":328.39,"MEAN_ANOMALY":31.6522,"EPHEMERIS_TYPE":0,"NORAD_CAT_ID":62900,"ELEMENT_SET_NO":999,"REV_AT_EPOCH":7989,"BSTAR":0.00017655659,"MEAN_MOTION_DOT":0.00003162,"MEAN_MOTION_DDOT":0},{"OBJECT_NAME":"LEGION 6","OBJECT_ID":"2025-025B","EPOCH":"2026-07-22T21:57:19.650528","CLASSIFICATION_TYPE":"U","MEAN_MOTION":15.15730655,"ECCENTRICITY":0.00104856,"INCLINATION":45.0023,"RA_OF_ASC_NODE":18.9811,"ARG_OF_PERICENTER":315.9324,"MEAN_ANOMALY":44.0718,"EPHEMERIS_TYPE":0,"NORAD_CAT_ID":62901,"ELEMENT_SET_NO":999,"REV_AT_EPOCH":8105,"BSTAR":0.000195309,"MEAN_MOTION_DOT":0.00003527,"MEAN_MOTION_DDOT":0}]}
