{"epoch":1784799577,"count":18318,"objects":[{"id":"59625","name":"LEGION 1","type":"PAYLOAD","l1":"1 59625U 24081A   26203.85133267  .00003542  00000-0  18320-3 0  9991","l2":"2 59625  97.5002 281.3303 0007957 237.6866 122.3597 15.16879713122943"},{"id":"59626","name":"LEGION 2","type":"PAYLOAD","l1":"1 59626U 24081B   26203.88182798  .00003877  00000-0  20016-3 0  9994","l2":"2 59626  97.5003 281.4571 0010853 204.3443 155.7279 15.16860892122950"},{"id":"60452","name":"LEGION 3","type":"PAYLOAD","l1":"1 60452U 24146A   26203.85017082  .00003274  00000-0  18259-3 0  9992","l2":"2 60452  45.0000 199.3558 0007374  16.7191 343.3930 15.15686793107435"},{"id":"60453","name":"LEGION 4","type":"PAYLOAD","l1":"1 60453U 24146B   26203.71793498  .00004025  00000-0  22105-3 0  9990","l2":"2 60453  45.0019 291.9320 0009541 159.8062 200.3196 15.15720677106262"},{"id":"62900","name":"LEGION 5","type":"PAYLOAD","l1":"1 62900U 25025A   26203.78381524  .00003162  00000-0  17656-3 0  9992","l2":"2 62900  45.0013 110.5358 0007585 328.3900  31.6522 15.15738014 79892"},{"id":"62901","name":"LEGION 6","type":"PAYLOAD","l1":"1 62901U 25025B   26203.91481077  .00003527  00000-0  19531-3 0  9991","l2":"2 62901  45.0023  18.9811 0010486 315.9324  44.0718 15.15730655 81054"}]}